SARSAT 7 (NOAA 15)      
1 25338U 98030A   22194.79964637  .00000177  00000+0  92230-4 0  9994
2 25338  98.6424 223.9887 0009673 215.2754 144.7787 14.26149512257025
METEOSAT-8 (MSG-1)      
1 27509U 02040B   22194.19702022  .00000127  00000+0  00000+0 0  9998
2 27509   8.0833  50.5209 0000596  30.3110 322.5477  1.00267706 72868
GPS BIIR-08             
1 27663U 03005A   22194.19001435  .00000016  00000+0  00000+0 0  9998
2 27663  55.4937 272.0402 0125380  41.1188 316.9616  2.00562972142527
GPS BIIR-11             
1 28190U 04009A   22194.49530578 -.00000079  00000+0  00000+0 0  9997
2 28190  55.9889 333.0162 0090649 122.0423 251.7980  2.00559778134177
GPS BIIR-13             
1 28474U 04045A   22193.54422597 -.00000069  00000+0  00000+0 0  9997
2 28474  55.3607  22.4365 0205952 279.2492  37.8449  2.00561113129638
SARSAT 10 (NOAA 18)     
1 28654U 05018A   22194.76496746  .00000183  00000+0  12264-3 0  9995
2 28654  98.9483 265.1793 0013204 255.6663 104.3043 14.12752581883789
GPS BIIR-14M            
1 28874U 05038A   22194.44249024 -.00000077  00000+0  00000+0 0  9995
2 28874  56.0538 330.4541 0137726 274.5078  84.7008  2.00574699123068
METEOSAT-9 (MSG-2)      
1 28912U 05049B   22194.23035514  .00000120  00000+0  00000+0 0  9992
2 28912   6.0756  66.1461 0001863   6.9250 346.6347  1.00275604 60646
GOES 13                 
1 29155U 06018A   22194.59738774  .00000035  00000+0  00000+0 0  9991
2 29155   0.6639  96.8449 0004160  82.5275  28.2627  1.00272329 28999
GPS BIIR-16M            
1 29601U 06052A   22193.50532060  .00000020  00000+0  00000+0 0  9999
2 29601  55.5016 271.0064 0083231  74.7112 286.2802  2.00552405114615
GPS BIIR-17M            
1 32260U 07047A   22194.31730577 -.00000002  00000+0  00000+0 0  9993
2 32260  53.3212 139.4728 0140523  62.8615 298.5224  2.00573298108038
GPS BIIR-18M            
1 32384U 07062A   22194.60981103 -.00000078  00000+0  00000+0 0  9995
2 32384  56.1736 331.2119 0020988 139.2358 202.1018  2.00563508106738
SARSAT 12 (NOAA 19)     
1 33591U 09005A   22194.76927422  .00000153  00000+0  10790-3 0  9990
2 33591  99.1462 229.4567 0014911 112.9547 247.3199 14.12587308692162
GOES 14                 
1 35491U 09033A   22194.53799543 -.00000095  00000+0  00000+0 0  9993
2 35491   0.3784  95.1393 0013208 114.3196 170.9615  1.00272171 47725
GOES 15                 
1 36411U 10008A   22194.51507858  .00000052  00000+0  00000+0 0  9996
2 36411   0.3511 101.0810 0002585  24.6672 222.6258  1.00274418 45288
GPS BIIF-2              
1 37753U 11036A   22193.93077098 -.00000064  00000+0  00000+0 0  9995
2 37753  56.6178  27.7115 0118369  52.6125 308.1372  2.00565432 80483
GSAT0101 (GALILEO-PFM)  
1 37846U 11060A   22194.06149336 -.00000072  00000+0  00000+0 0  9994
2 37846  57.0066  20.6396 0003490  55.1847 304.8864  1.70474912 66657
GSAT0102 (GALILEO-FM2)  
1 37847U 11060B   22194.28719237 -.00000073  00000+0  00000+0 0  9993
2 37847  57.0074  20.6331 0002727  16.8139 168.4623  1.70475263 66664
LUCH 5A                 
1 37951U 11074B   22194.77734720 -.00000056  00000+0  00000+0 0  9993
2 37951   5.0823  97.1997 0006029   3.2780 277.9612  1.00273761 38804
METEOSAT-10 (MSG-3)     
1 38552U 12035B   22194.26604987  .00000059  00000+0  00000+0 0  9996
2 38552   1.5589  42.6575 0000843  92.4959 261.2194  1.00278306 36466
SARSAT 13 (METOP-B)     
1 38771U 12049A   22194.82781904  .00000079  00000+0  56085-4 0  9992
2 38771  98.6943 254.1886 0001138  58.6158  88.4211 14.21495074509473
GPS BIIF-3              
1 38833U 12053A   22194.41259333  .00000072  00000+0  00000+0 0  9991
2 38833  53.5303 202.2866 0124669  46.3288 314.7282  2.00562070 70669
GSAT0103 (GALILEO-FM3)  
1 38857U 12055A   22191.75454192  .00000025  00000+0  00000+0 0  9991
2 38857  55.1449 141.0589 0004694 271.5477  88.3526  1.70473630 60509
GSAT0104 (GALILEO-FM4)  
1 38858U 12055B   22192.31120525  .00000020  00000+0  00000+0 0  9990
2 38858  55.1453 141.0450 0002242 275.3535  84.5720  1.70473912 60514
GPS BIIF-4              
1 39166U 13023A   22194.27100053 -.00000074  00000+0  00000+0 0  9990
2 39166  55.6800 326.8234 0103988  38.6030 322.1312  2.00565607 67107
INSAT-3D                
1 39216U 13038B   22194.60375723 -.00000161  00000+0  00000+0 0  9994
2 39216   0.0594 270.7644 0001107 234.4675  85.6780  1.00275674 32710
GPS BIIF-5              
1 39533U 14008A   22194.27123524  .00000077  00000+0  00000+0 0  9992
2 39533  53.6236 207.8014 0060509 209.3852 150.3157  2.00554915 60909
LUCH 5V                 
1 39727U 14023A   22194.51160365 -.00000274  00000+0  00000+0 0  9995
2 39727   1.5570  75.8333 0003831  56.4792  77.9664  1.00272350 29971
GPS BIIF-6              
1 39741U 14026A   22194.55218507 -.00000068  00000+0  00000+0 0  9991
2 39741  56.5796  27.2131 0026297 307.2334  52.5729  2.00554055 59761
GPS BIIF-7              
1 40105U 14045A   22194.13560721  .00000008  00000+0  00000+0 0  9993
2 40105  54.6981 145.7793 0020181 111.3550 248.8189  2.00548870 57296
GSAT0201 (GALILEO 5)    
1 40128U 14050A   22194.62041697 -.00000099  00000+0  00000+0 0  9995
2 40128  50.2671 331.2403 1626123 125.0010 251.3904  1.85518822 53646
GSAT0202 (GALILEO 6)    
1 40129U 14050B   22193.26433075 -.00000097  00000+0  00000+0 0  9998
2 40129  50.2926 330.3557 1623328 125.7603 250.4736  1.85519486 53841
GPS BIIF-8              
1 40294U 14068A   22194.01260179 -.00000039  00000+0  00000+0 0  9993
2 40294  55.8332  86.9254 0041804  55.5998 304.8408  2.00573169 56426
GLONASS-K 2             
1 40315U 14075A   22194.74543727  .00000074  00000+0  00000+0 0  9996
2 40315  63.6863 240.2502 0019134 210.7273 126.5711  2.13101578 59287
GPS BIIF-9              
1 40534U 15013A   22193.65401917  .00000032  00000+0  00000+0 0  9999
2 40534  53.6868 263.6521 0068943  20.3188 340.0377  2.00550783 53036
GSAT0203 (GALILEO 7)    
1 40544U 15017A   22192.66885782 -.00000067  00000+0  00000+0 0  9999
2 40544  56.8011  20.7073 0001123 217.4362 142.5992  1.70475817 44719
GSAT0204 (GALILEO 8)    
1 40545U 15017B   22193.50820446 -.00000070  00000+0  00000+0 0  9994
2 40545  56.8076  20.6968 0001768 179.3159 180.7248  1.70475510  7771
GPS BIIF-10             
1 40730U 15033A   22194.31580514 -.00000074  00000+0  00000+0 0  9991
2 40730  55.1778 325.6386 0073481   7.9525 352.1599  2.00577072 51216
METEOSAT-11 (MSG-4)     
1 40732U 15034A   22194.33607986 -.00000004  00000+0  00000+0 0  9992
2 40732   0.3387  62.2115 0001594  20.7941 329.7749  1.00261654 25630
GSAT0205 (GALILEO 9)    
1 40889U 15045A   22193.86196949  .00000028  00000+0  00000+0 0  9991
2 40889  55.6063 261.2626 0003225   1.2850 358.8105  1.70473752 42540
GSAT0206 (GALILEO 10)   
1 40890U 15045B   22193.49615856  .00000029  00000+0  00000+0 0  9996
2 40890  55.6053 261.2684 0001949 328.4249  31.6570  1.70473748 42561
GPS BIIF-11             
1 41019U 15062A   22194.36042918 -.00000038  00000+0  00000+0 0  9990
2 41019  55.8217  86.7551 0078323 217.8917 141.6019  2.00562575 49057
ELEKTRO-L 2             
1 41105U 15074A   22194.36370931 -.00000122  00000+0  00000+0 0  9992
2 41105   3.0519  87.8523 0002142  58.6978 261.0820  1.00270772 24120
GSAT0209 (GALILEO 12)   
1 41174U 15079A   22193.08367425  .00000013  00000+0  00000+0 0  9993
2 41174  55.1617 140.7261 0004923 310.0165  49.8884  1.70474026 40296
GSAT0208 (GALILEO 11)   
1 41175U 15079B   22193.30313438  .00000011  00000+0  00000+0 0  9992
2 41175  55.1601 140.7186 0004201 309.3295  50.5808  1.70474020 40716
GPS BIIF-12             
1 41328U 16007A   22193.95203234  .00000010  00000+0  00000+0 0  9996
2 41328  54.9149 146.4646 0062216 230.7401 128.6662  2.00569522 47055
GSAT0211 (GALILEO 14)   
1 41549U 16030A   22194.59586017  .00000026  00000+0  00000+0 0  9998
2 41549  55.7503 261.1736 0003578 304.5595  55.5029  1.70475244 38191
GSAT0210 (GALILEO 13)   
1 41550U 16030B   22191.36897701  .00000026  00000+0  00000+0 0  9997
2 41550  55.7519 261.2642 0003669 270.9883  89.0532  1.70475344 38152
INSAT-3DR               
1 41752U 16054A   22194.86697263 -.00000082  00000+0  00000+0 0  9999
2 41752   0.0761  96.0491 0009738 170.8810  50.8811  1.00270915 21412
GSAT0207 (GALILEO 15)   
1 41859U 16069A   22193.96350008  .00000007  00000+0  00000+0 0  9992
2 41859  54.8224 140.8769 0005025 298.0132  61.8823  1.70472671 34938
GSAT0212 (GALILEO 16)   
1 41860U 16069B   22193.23031778  .00000012  00000+0  00000+0 0  9990
2 41860  54.8199 140.8947 0003744 319.0367  40.8827  1.70472670 35176
GSAT0213 (GALILEO 17)   
1 41861U 16069C   22192.42254244  .00000018  00000+0  00000+0 0  9992
2 41861  54.8219 140.9223 0004746 278.7221  81.1747  1.70472863 35028
GSAT0214 (GALILEO 18)   
1 41862U 16069D   22193.15622014  .00000012  00000+0  00000+0 0  9992
2 41862  54.8205 140.8964 0003793 283.8536  76.0519  1.70472741 35162
GOES 16                 
1 41866U 16071A   22194.52688413 -.00000252  00000+0  00000+0 0  9993
2 41866   0.0621 231.2880 0000769 263.2642 271.2979  1.00270906 20720
GSAT-17                 
1 42815U 17040B   22194.55743796 -.00000261  00000+0  00000+0 0  9994
2 42815   0.0224  52.8042 0001090 203.0474 329.7324  1.00267889 18405
GSAT0215 (GALILEO 19)   
1 43055U 17079A   22192.47369767  .00000029  00000+0  00000+0 0  9995
2 43055  55.7274 261.0644 0003220 263.6620  96.3908  1.70474455 28499
GSAT0216 (GALILEO 20)   
1 43056U 17079B   22193.35249005  .00000030  00000+0  00000+0 0  9998
2 43056  55.7272 261.0399 0004901 270.2835  89.7537  1.70474588 28529
GSAT0217 (GALILEO 21)   
1 43057U 17079C   22192.98614856  .00000030  00000+0  00000+0 0  9997
2 43057  55.7255 261.0497 0004288 281.2384  78.8053  1.70474584 28505
GSAT0218 (GALILEO 22)   
1 43058U 17079D   22193.79277059  .00000029  00000+0  00000+0 0  9996
2 43058  55.7252 261.0249 0005419 267.3881  92.6447  1.70474495 28548
GOES 17                 
1 43226U 18022A   22194.52757743  .00000094  00000+0  00000+0 0  9999
2 43226   0.0832 251.2245 0000655 209.6650 243.1349  1.00269632 16043
